NORAD_CAT_ID,OBJECT_NAME,OBJECT_TYPE,EPOCH,MEAN_MOTION,ECCENTRICITY,INCLINATION,RA_OF_ASC_NODE,ARG_OF_PERICENTER,MEAN_ANOMALY,BSTAR,MEAN_MOTION_DOT,MEAN_MOTION_DDOT,TLE_LINE0,TLE_LINE1,TLE_LINE2,SEMIMAJOR_AXIS,PERIOD,APOGEE,PERIGEE,DECAYED
53608.0,STARLINK-4647,PAYLOAD,2024-04-13 07:26:52,15.08828244,0.0001132,53.2152,115.9926,88.3512,271.761,-2.1953e-05,-6.37e-06,0.0,0 STARLINK-4647,1 53608U 22104W   24104.31032980 -.00000637  00000-0 -21953-4 0  9990,2 53608  53.2152 115.9926 0001132  88.3512 271.7610 15.08828244 90082,6917.916,95.438,540.564,538.998,0.0
53608.0,STARLINK-4647,PAYLOAD,2024-04-14 04:06:54,15.08819367,0.0001166,53.2161,112.1292,87.6015,272.5111,-7.6572e-05,-1.506e-05,0.0,0 STARLINK-4647,1 53608U 22104W   24105.17146312 -.00001506  00000-0 -76572-4 0  9993,2 53608  53.2161 112.1292 0001166  87.6015 272.5111 15.08819367 90210,6917.943,95.439,540.615,539.002,0.0
53608.0,STARLINK-4647,PAYLOAD,2024-04-14 10:28:27,15.08824511,0.0001407,53.2161,110.9321,109.0553,251.0592,-0.00010915,-2.024e-05,0.0,0 STARLINK-4647,1 53608U 22104W   24105.43642498 -.00002024  00000-0 -10915-3 0  9992,2 53608  53.2161 110.9321 0001407 109.0553 251.0592 15.08824511 90822,6917.928,95.439,540.766,538.819,0.0
53608.0,STARLINK-4647,PAYLOAD,2024-04-15 03:57:40,15.08848963,0.000141,53.2163,107.6652,91.5183,268.597,-0.00018082,-3.165e-05,0.0,0 STARLINK-4647,1 53608U 22104W   24106.16505076 -.00003165  00000-0 -18082-3 0  9993,2 53608  53.2163 107.6652 0001410  91.5183 268.5970 15.08848963 90361,6917.853,95.437,540.693,538.743,0.0
53608.0,STARLINK-4647,PAYLOAD,2024-04-15 07:08:25,15.08889373,0.0001037,53.2165,107.07,84.8064,275.3047,-0.00067113,-0.00010967,0.0,0 STARLINK-4647,1 53608U 22104W   24106.29751440 -.00010967  00000-0 -67113-3 0  9992,2 53608  53.2165 107.0700 0001037  84.8064 275.3047 15.08889373 90382,6917.729,95.434,540.312,538.877,0.0
53608.0,STARLINK-4647,PAYLOAD,2024-04-16 05:23:51,15.08829585,0.0001667,53.2184,102.9115,110.4025,249.7147,0.00016827,2.39e-05,0.0,0 STARLINK-4647,1 53608U 22104W   24107.22490308  .00002390  00000-0  16827-3 0  9994,2 53608  53.2184 102.9115 0001667 110.4025 249.7147 15.08829585 90520,6917.912,95.438,540.93,538.624,0.0
53608.0,STARLINK-4647,PAYLOAD,2024-04-16 06:59:14,15.08829984,0.0001659,53.2184,102.6141,111.258,248.859,0.00016412,2.324e-05,0.0,0 STARLINK-4647,1 53608U 22104W   24107.29114280  .00002324  00000-0  16412-3 0  9990,2 53608  53.2184 102.6141 0001659 111.2580 248.8590 15.08829984 91102,6917.911,95.438,540.924,538.628,0.0
53608.0,STARLINK-4647,PAYLOAD,2024-04-16 16:31:33,15.08841844,0.00015,53.2174,100.8272,99.6784,260.4378,0.00019461,2.811e-05,0.0,0 STARLINK-4647,1 53608U 22104W   24107.68857642  .00002811  00000-0  19461-3 0  9997,2 53608  53.2174 100.8272 0001500  99.6784 260.4378 15.08841844 90591,6917.875,95.437,540.777,538.702,0.0
53608.0,STARLINK-4647,PAYLOAD,2024-04-17 05:14:38,15.08839668,0.0001356,53.2186,98.4491,86.9368,273.1779,8.5218e-05,1.069e-05,0.0,0 STARLINK-4647,1 53608U 22104W   24108.21850257  .00001069  00000-0  85218-4 0  9990,2 53608  53.2186  98.4491 0001356  86.9368 273.1779 15.08839668 90671,6917.881,95.438,540.684,538.808,0.0
53608.0,STARLINK-4647,PAYLOAD,2024-04-17 08:25:24,15.08844816,0.000139,53.2165,97.8505,95.3315,264.7836,8.2734e-05,1.029e-05,0.0,0 STARLINK-4647,1 53608U 22104W   24108.35097860  .00001029  00000-0  82734-4 0  9994,2 53608  53.2165  97.8505 0001390  95.3315 264.7836 15.08844816 91268,6917.866,95.437,540.692,538.769,0.0
53608.0,STARLINK-4647,PAYLOAD,2024-04-18 08:16:12,15.08833403,0.0001312,53.2171,93.3901,91.702,268.4123,2.4895e-05,1.08e-06,0.0,0 STARLINK-4647,1 53608U 22104W   24109.34458831  .00000108  00000-0  24895-4 0  9994,2 53608  53.2171  93.3901 0001312  91.7020 268.4123 15.08833403 90846,6917.901,95.438,540.673,538.858,0.0
53608.0,STARLINK-4647,PAYLOAD,2024-04-19 04:56:12,15.0884559,0.0001207,53.2169,89.5257,102.346,257.7667,6.7776e-05,7.91e-06,0.0,0 STARLINK-4647,1 53608U 22104W   24110.20570104  .00000791  00000-0  67776-4 0  9992,2 53608  53.2169  89.5257 0001207 102.3460 257.7667 15.08845590 90972,6917.863,95.437,540.563,538.893,0.0
53608.0,STARLINK-4647,PAYLOAD,2024-04-19 08:06:58,15.08846903,0.0001334,53.2174,88.9283,92.2776,267.8369,0.0001146,1.537e-05,0.0,0 STARLINK-4647,1 53608U 22104W   24110.33817917  .00001537  00000-0  11460-3 0  9999,2 53608  53.2174  88.9283 0001334  92.2776 267.8369 15.08846903 91564,6917.859,95.437,540.647,538.801,0.0
53608.0,STARLINK-4647,PAYLOAD,2024-04-20 04:46:59,15.08853344,0.000153,53.2174,85.0611,79.2548,280.8617,0.00035622,5.388e-05,0.0,0 STARLINK-4647,1 53608U 22104W   24111.19929749  .00005388  00000-0  35622-3 0  9995,2 53608  53.2174  85.0611 0001530  79.2548 280.8617 15.08853344 91699,6917.84,95.437,540.763,538.646,0.0
53608.0,STARLINK-4647,PAYLOAD,2024-04-21 04:37:48,15.08809776,0.0001375,53.2173,80.6017,89.8866,270.2284,-0.00041825,-6.933e-05,0.0,0 STARLINK-4647,1 53608U 22104W   24112.19292120 -.00006933  00000-0 -41825-3 0  9993,2 53608  53.2173  80.6017 0001375  89.8866 270.2284 15.08809776 91273,6917.973,95.439,540.789,538.887,0.0
53608.0,STARLINK-4647,PAYLOAD,2024-04-21 07:48:34,15.08812672,0.0001071,53.2163,80.0113,91.6943,268.4172,-0.00040227,-6.679e-05,0.0,0 STARLINK-4647,1 53608U 22104W   24112.32539865 -.00006679  00000-0 -40227-3 0  9990,2 53608  53.2163  80.0113 0001071  91.6943 268.4172 15.08812672 91862,6917.964,95.439,540.57,539.088,0.0
53608.0,STARLINK-4647,PAYLOAD,2024-04-22 04:28:34,15.08850248,0.0001573,53.2175,76.1442,125.5524,234.5615,0.00048456,7.434e-05,0.0,0 STARLINK-4647,1 53608U 22104W   24113.18651123  .00007434  00000-0  48456-3 0  9997,2 53608  53.2175  76.1442 0001573 125.5524 234.5615 15.08850248 91424,6917.849,95.437,540.802,538.626,0.0
53608.0,STARLINK-4647,PAYLOAD,2024-04-23 04:19:22,15.08834686,0.0001074,53.2171,71.6834,106.0317,254.0793,0.00039402,5.988e-05,0.0,0 STARLINK-4647,1 53608U 22104W   24114.18012223  .00005988  00000-0  39402-3 0  9993,2 53608  53.2171  71.6834 0001074 106.0317 254.0793 15.08834686 91573,6917.897,95.438,540.505,539.019,0.0
53608.0,STARLINK-4647,PAYLOAD,2024-04-24 05:45:31,15.08858021,0.0001517,53.2188,66.9226,127.878,232.235,6.0307e-06,-1.92e-06,0.0,0 STARLINK-4647,1 53608U 22104W   24115.23994956 -.00000192  00000-0  60307-5 0  9995,2 53608  53.2188  66.9226 0001517 127.8780 232.2350 15.08858021 91734,6917.825,95.436,540.74,538.641,0.0
53608.0,STARLINK-4647,PAYLOAD,2024-04-25 04:00:56,15.08839829,0.0001132,53.2184,62.766,110.7867,249.3247,9.1269e-05,1.165e-05,0.0,0 STARLINK-4647,1 53608U 22104W   24116.16731749  .00001165  00000-0  91269-4 0  9997,2 53608  53.2184  62.7660 0001132 110.7867 249.3247 15.08839829 91870,6917.881,95.438,540.529,538.963,0.0
53608.0,STARLINK-4647,PAYLOAD,2024-04-26 13:24:00,15.08864639,0.0001015,53.218,56.5172,105.6002,254.5102,-3.2452e-05,-8.05e-06,0.0,0 STARLINK-4647,1 53608U 22104W   24117.55833929 -.00000805  00000-0 -32452-4 0  9995,2 53608  53.2180  56.5172 0001015 105.6002 254.5102 15.08864639 92088,6917.805,95.436,540.372,538.968,0.0
53608.0,STARLINK-4647,PAYLOAD,2024-04-27 13:14:47,15.08853511,0.0001122,53.2176,52.0537,102.6744,257.4373,0.00016231,2.297e-05,0.0,0 STARLINK-4647,1 53608U 22104W   24118.55193980  .00002297  00000-0  16231-3 0  9993,2 53608  53.2176  52.0537 0001122 102.6744 257.4373 15.08853511 92234,6917.839,95.437,540.48,538.928,0.0
53608.0,STARLINK-4647,PAYLOAD,2024-04-27 22:47:09,15.08818871,0.0001122,53.2188,50.2744,78.0691,282.0427,-0.00022613,-3.883e-05,0.0,0 STARLINK-4647,1 53608U 22104W   24118.94941506 -.00003883  00000-0 -22613-3 0  9996,2 53608  53.2188  50.2744 0001122  78.0691 282.0427 15.08818871 92294,6917.945,95.439,540.586,539.034,0.0
53608.0,STARLINK-4647,PAYLOAD,2024-04-28 19:27:09,15.08831659,0.0001506,53.218,46.4086,88.5958,271.5206,4.4023e-05,4.13e-06,0.0,0 STARLINK-4647,1 53608U 22104W   24119.81052534  .00000413  00000-0  44023-4 0  9991,2 53608  53.2180  46.4086 0001506  88.5958 271.5206 15.08831659 92422,6917.906,95.438,540.813,538.729,0.0
53608.0,STARLINK-4647,PAYLOAD,2024-04-28 22:37:55,15.08834745,0.0001732,53.2184,45.8149,84.2457,275.8733,6.9114e-05,8.12e-06,0.0,0 STARLINK-4647,1 53608U 22104W   24119.94300483  .00000812  00000-0  69114-4 0  9995,2 53608  53.2184  45.8149 0001732  84.2457 275.8733 15.08834745 93014,6917.896,95.438,540.96,538.563,0.0
53608.0,STARLINK-4647,PAYLOAD,2024-04-29 04:59:28,15.08837871,0.0001489,53.2184,44.6232,84.922,275.1942,0.00019823,2.868e-05,0.0,0 STARLINK-4647,1 53608U 22104W   24120.20796494  .00002868  00000-0  19823-3 0  9991,2 53608  53.2184  44.6232 0001489  84.9220 275.1942 15.08837871 93050,6917.887,95.438,540.782,538.722,0.0
53608.0,STARLINK-4647,PAYLOAD,2024-04-29 22:28:42,15.08840722,0.0001408,53.2176,41.3532,79.3578,280.7573,0.0004225,6.443e-05,0.0,0 STARLINK-4647,1 53608U 22104W   24120.93660775  .00006443  00000-0  42250-3 0  9996,2 53608  53.2176  41.3532 0001408  79.3578 280.7573 15.08840722 93166,6917.878,95.438,540.717,538.769,0.0
53608.0,STARLINK-4647,PAYLOAD,2024-04-30 04:50:15,15.08850254,0.0001288,53.217,40.163,77.7789,282.3347,0.00038894,5.909e-05,0.0,0 STARLINK-4647,1 53608U 22104W   24121.20156376  .00005909  00000-0  38894-3 0  9999,2 53608  53.2170  40.1630 0001288  77.7789 282.3347 15.08850254 92637,6917.849,95.437,540.605,538.823,0.0
53608.0,STARLINK-4647,PAYLOAD,2024-04-30 11:11:47,15.0885939,0.0001368,53.2181,38.9741,80.648,279.4667,0.00046547,7.132e-05,0.0,0 STARLINK-4647,1 53608U 22104W   24121.46651885  .00007132  00000-0  46547-3 0  9996,2 53608  53.2181  38.9741 0001368  80.6480 279.4667 15.08859390 93247,6917.821,95.436,540.632,538.74,0.0
53608.0,STARLINK-4647,PAYLOAD,2024-04-30 22:19:29,15.08845521,0.0001847,53.2196,36.8981,109.5847,250.5344,3.201e-05,2.21e-06,0.0,0 STARLINK-4647,1 53608U 22104W   24121.93020237  .00000221  00000-0  32010-4 0  9992,2 53608  53.2196  36.8981 0001847 109.5847 250.5344 15.08845521 93317,6917.864,95.437,541.006,538.451,0.0
